<?xml version="1.0" encoding="UTF-8"?>
<ndm xmlns:xsi="http://www.w3.org/2001/XMLSchema-instance" xsi:noNamespaceSchemaLocation="https://sanaregistry.org/r/ndmxml_unqualified/ndmxml-2.0.0-master-2.0.xsd">
<omm id="CCSDS_OMM_VERS" version="2.0">
<header><CREATION_DATE/><ORIGINATOR/></header><body><segment><metadata><OBJECT_NAME>IRIDIUM 159</OBJECT_NAME><OBJECT_ID>2018-061K</OBJECT_ID><CENTER_NAME>EARTH</CENTER_NAME><REF_FRAME>TEME</REF_FRAME><TIME_SYSTEM>UTC</TIME_SYSTEM><MEAN_ELEMENT_THEORY>SGP4</MEAN_ELEMENT_THEORY></metadata><data><meanElements><EPOCH>2025-02-17T02:32:14.452512</EPOCH><MEAN_MOTION>14.34217034</MEAN_MOTION><ECCENTRICITY>.0001748</ECCENTRICITY><INCLINATION>86.3919</INCLINATION><RA_OF_ASC_NODE>259.3820</RA_OF_ASC_NODE><ARG_OF_PERICENTER>91.0750</ARG_OF_PERICENTER><MEAN_ANOMALY>269.0646</MEAN_ANOMALY></meanElements><tleParameters><EPHEMERIS_TYPE>0</EPHEMERIS_TYPE><CLASSIFICATION_TYPE>U</CLASSIFICATION_TYPE><NORAD_CAT_ID>43578</NORAD_CAT_ID><ELEMENT_SET_NO>999</ELEMENT_SET_NO><REV_AT_EPOCH>34385</REV_AT_EPOCH><BSTAR>-.1637E-4</BSTAR><MEAN_MOTION_DOT>-.26E-6</MEAN_MOTION_DOT><MEAN_MOTION_DDOT>0</MEAN_MOTION_DDOT></tleParameters></data></segment></body></omm>
<omm id="CCSDS_OMM_VERS" version="2.0">
<header><CREATION_DATE/><ORIGINATOR/></header><body><segment><metadata><OBJECT_NAME>IRIDIUM 180</OBJECT_NAME><OBJECT_ID>2019-002A</OBJECT_ID><CENTER_NAME>EARTH</CENTER_NAME><REF_FRAME>TEME</REF_FRAME><TIME_SYSTEM>UTC</TIME_SYSTEM><MEAN_ELEMENT_THEORY>SGP4</MEAN_ELEMENT_THEORY></metadata><data><meanElements><EPOCH>2025-02-16T21:30:06.916032</EPOCH><MEAN_MOTION>14.34218344</MEAN_MOTION><ECCENTRICITY>.0002132</ECCENTRICITY><INCLINATION>86.4009</INCLINATION><RA_OF_ASC_NODE>196.3777</RA_OF_ASC_NODE><ARG_OF_PERICENTER>98.0467</ARG_OF_PERICENTER><MEAN_ANOMALY>262.0971</MEAN_ANOMALY></meanElements><tleParameters><EPHEMERIS_TYPE>0</EPHEMERIS_TYPE><CLASSIFICATION_TYPE>U</CLASSIFICATION_TYPE><NORAD_CAT_ID>43922</NORAD_CAT_ID><ELEMENT_SET_NO>999</ELEMENT_SET_NO><REV_AT_EPOCH>31943</REV_AT_EPOCH><BSTAR>.37934E-4</BSTAR><MEAN_MOTION_DOT>.126E-5</MEAN_MOTION_DOT><MEAN_MOTION_DDOT>0</MEAN_MOTION_DDOT></tleParameters></data></segment></body></omm>
<omm id="CCSDS_OMM_VERS" version="2.0">
<header><CREATION_DATE/><ORIGINATOR/></header><body><segment><metadata><OBJECT_NAME>IRIDIUM 168</OBJECT_NAME><OBJECT_ID>2019-002C</OBJECT_ID><CENTER_NAME>EARTH</CENTER_NAME><REF_FRAME>TEME</REF_FRAME><TIME_SYSTEM>UTC</TIME_SYSTEM><MEAN_ELEMENT_THEORY>SGP4</MEAN_ELEMENT_THEORY></metadata><data><meanElements><EPOCH>2025-02-16T23:01:26.878368</EPOCH><MEAN_MOTION>14.34218177</MEAN_MOTION><ECCENTRICITY>.0001925</ECCENTRICITY><INCLINATION>86.4011</INCLINATION><RA_OF_ASC_NODE>196.4146</RA_OF_ASC_NODE><ARG_OF_PERICENTER>96.0992</ARG_OF_PERICENTER><MEAN_ANOMALY>264.0423</MEAN_ANOMALY></meanElements><tleParameters><EPHEMERIS_TYPE>0</EPHEMERIS_TYPE><CLASSIFICATION_TYPE>U</CLASSIFICATION_TYPE><NORAD_CAT_ID>43924</NORAD_CAT_ID><ELEMENT_SET_NO>999</ELEMENT_SET_NO><REV_AT_EPOCH>31942</REV_AT_EPOCH><BSTAR>.23984E-4</BSTAR><MEAN_MOTION_DOT>.87E-6</MEAN_MOTION_DOT><MEAN_MOTION_DDOT>0</MEAN_MOTION_DDOT></tleParameters></data></segment></body></omm>
<omm id="CCSDS_OMM_VERS" version="2.0">
<header><CREATION_DATE/><ORIGINATOR/></header><body><segment><metadata><OBJECT_NAME>IRIDIUM 173</OBJECT_NAME><OBJECT_ID>2019-002D</OBJECT_ID><CENTER_NAME>EARTH</CENTER_NAME><REF_FRAME>TEME</REF_FRAME><TIME_SYSTEM>UTC</TIME_SYSTEM><MEAN_ELEMENT_THEORY>SGP4</MEAN_ELEMENT_THEORY></metadata><data><meanElements><EPOCH>2025-02-17T03:44:34.379808</EPOCH><MEAN_MOTION>14.34217548</MEAN_MOTION><ECCENTRICITY>.0002144</ECCENTRICITY><INCLINATION>86.4007</INCLINATION><RA_OF_ASC_NODE>196.2415</RA_OF_ASC_NODE><ARG_OF_PERICENTER>96.7518</ARG_OF_PERICENTER><MEAN_ANOMALY>263.3922</MEAN_ANOMALY></meanElements><tleParameters><EPHEMERIS_TYPE>0</EPHEMERIS_TYPE><CLASSIFICATION_TYPE>U</CLASSIFICATION_TYPE><NORAD_CAT_ID>43925</NORAD_CAT_ID><ELEMENT_SET_NO>999</ELEMENT_SET_NO><REV_AT_EPOCH>31944</REV_AT_EPOCH><BSTAR>.17302E-3</BSTAR><MEAN_MOTION_DOT>.504E-5</MEAN_MOTION_DOT><MEAN_MOTION_DDOT>0</MEAN_MOTION_DDOT></tleParameters></data></segment></body></omm>
<omm id="CCSDS_OMM_VERS" version="2.0">
<header><CREATION_DATE/><ORIGINATOR/></header><body><segment><metadata><OBJECT_NAME>IRIDIUM 169</OBJECT_NAME><OBJECT_ID>2019-002E</OBJECT_ID><CENTER_NAME>EARTH</CENTER_NAME><REF_FRAME>TEME</REF_FRAME><TIME_SYSTEM>UTC</TIME_SYSTEM><MEAN_ELEMENT_THEORY>SGP4</MEAN_ELEMENT_THEORY></metadata><data><meanElements><EPOCH>2025-02-16T23:04:56.688672</EPOCH><MEAN_MOTION>14.38588054</MEAN_MOTION><ECCENTRICITY>.0003555</ECCENTRICITY><INCLINATION>86.4203</INCLINATION><RA_OF_ASC_NODE>227.9122</RA_OF_ASC_NODE><ARG_OF_PERICENTER>106.4736</ARG_OF_PERICENTER><MEAN_ANOMALY>253.6853</MEAN_ANOMALY></meanElements><tleParameters><EPHEMERIS_TYPE>0</EPHEMERIS_TYPE><CLASSIFICATION_TYPE>U</CLASSIFICATION_TYPE><NORAD_CAT_ID>43926</NORAD_CAT_ID><ELEMENT_SET_NO>999</ELEMENT_SET_NO><REV_AT_EPOCH>32046</REV_AT_EPOCH><BSTAR>.79129E-4</BSTAR><MEAN_MOTION_DOT>.262E-5</MEAN_MOTION_DOT><MEAN_MOTION_DDOT>0</MEAN_MOTION_DDOT></tleParameters></data></segment></body></omm>
<omm id="CCSDS_OMM_VERS" version="2.0">
<header><CREATION_DATE/><ORIGINATOR/></header><body><segment><metadata><OBJECT_NAME>IRIDIUM 172</OBJECT_NAME><OBJECT_ID>2019-002F</OBJECT_ID><CENTER_NAME>EARTH</CENTER_NAME><REF_FRAME>TEME</REF_FRAME><TIME_SYSTEM>UTC</TIME_SYSTEM><MEAN_ELEMENT_THEORY>SGP4</MEAN_ELEMENT_THEORY></metadata><data><meanElements><EPOCH>2025-02-16T22:34:02.846208</EPOCH><MEAN_MOTION>14.34218352</MEAN_MOTION><ECCENTRICITY>.0001882</ECCENTRICITY><INCLINATION>86.4004</INCLINATION><RA_OF_ASC_NODE>196.3377</RA_OF_ASC_NODE><ARG_OF_PERICENTER>97.9740</ARG_OF_PERICENTER><MEAN_ANOMALY>262.1669</MEAN_ANOMALY></meanElements><tleParameters><EPHEMERIS_TYPE>0</EPHEMERIS_TYPE><CLASSIFICATION_TYPE>U</CLASSIFICATION_TYPE><NORAD_CAT_ID>43927</NORAD_CAT_ID><ELEMENT_SET_NO>999</ELEMENT_SET_NO><REV_AT_EPOCH>31941</REV_AT_EPOCH><BSTAR>.86586E-4</BSTAR><MEAN_MOTION_DOT>.262E-5</MEAN_MOTION_DOT><MEAN_MOTION_DDOT>0</MEAN_MOTION_DDOT></tleParameters></data></segment></body></omm>
<omm id="CCSDS_OMM_VERS" version="2.0">
<header><CREATION_DATE/><ORIGINATOR/></header><body><segment><metadata><OBJECT_NAME>IRIDIUM 175</OBJECT_NAME><OBJECT_ID>2019-002G</OBJECT_ID><CENTER_NAME>EARTH</CENTER_NAME><REF_FRAME>TEME</REF_FRAME><TIME_SYSTEM>UTC</TIME_SYSTEM><MEAN_ELEMENT_THEORY>SGP4</MEAN_ELEMENT_THEORY></metadata><data><meanElements><EPOCH>2025-02-16T20:44:36.735648</EPOCH><MEAN_MOTION>14.72244876</MEAN_MOTION><ECCENTRICITY>.00031</ECCENTRICITY><INCLINATION>86.1558</INCLINATION><RA_OF_ASC_NODE>155.7836</RA_OF_ASC_NODE><ARG_OF_PERICENTER>86.3164</ARG_OF_PERICENTER><MEAN_ANOMALY>273.8407</MEAN_ANOMALY></meanElements><tleParameters><EPHEMERIS_TYPE>0</EPHEMERIS_TYPE><CLASSIFICATION_TYPE>U</CLASSIFICATION_TYPE><NORAD_CAT_ID>43928</NORAD_CAT_ID><ELEMENT_SET_NO>999</ELEMENT_SET_NO><REV_AT_EPOCH>32783</REV_AT_EPOCH><BSTAR>.46061E-3</BSTAR><MEAN_MOTION_DOT>.293E-4</MEAN_MOTION_DOT><MEAN_MOTION_DDOT>0</MEAN_MOTION_DDOT></tleParameters></data></segment></body></omm>

</ndm>
