IRIDIUM 159             
1 43578U 18061K   25048.10572283 -.00000026  00000+0 -16370-4 0  9990
2 43578  86.3919 259.3820 0001748  91.0750 269.0646 14.34217034343851
IRIDIUM 180             
1 43922U 19002A   25047.89591338  .00000126  00000+0  37934-4 0  9994
2 43922  86.4009 196.3777 0002132  98.0467 262.0971 14.34218344319432
IRIDIUM 168             
1 43924U 19002C   25047.95933887  .00000087  00000+0  23984-4 0  9998
2 43924  86.4011 196.4146 0001925  96.0992 264.0423 14.34218177319425
IRIDIUM 173             
1 43925U 19002D   25048.15595347  .00000504  00000+0  17302-3 0  9997
2 43925  86.4007 196.2415 0002144  96.7518 263.3922 14.34217548319442
IRIDIUM 169             
1 43926U 19002E   25047.96176723  .00000262  00000+0  79129-4 0  9996
2 43926  86.4203 227.9122 0003555 106.4736 253.6853 14.38588054320462
IRIDIUM 172             
1 43927U 19002F   25047.94031072  .00000262  00000+0  86586-4 0  9997
2 43927  86.4004 196.3377 0001882  97.9740 262.1669 14.34218352319413
IRIDIUM 175             
1 43928U 19002G   25047.86431407  .00002930  00000+0  46061-3 0  9992
2 43928  86.1558 155.7836 0003100  86.3164 273.8407 14.72244876327837
